{"type": "FeatureCollection", "features": [{"type": "Feature", "properties": {"norad_id": 22675, "name": "COSMOS 2251", "group": "cosmos-2251-debris", "lat": 71.26348131513399, "lon": 78.81363343258899, "alt_km": 765.5148113432406, "timestamp": "2025-12-12T11:38:31.804959+00:00", "meta": {"OBJECT_NAME": "COSMOS 2251", "OBJECT_ID": "1993-036A", "EPOCH": "2025-12-12T04:28:43.440960", "MEAN_MOTION": 14.3320453, "ECCENTRICITY": 0.0023939, "INCLINATION": 74.0395, "RA_OF_ASC_NODE": 316.8941, "ARG_OF_PERICENTER": 39.3433, "MEAN_ANOMALY": 320.9451, "EPHEMERIS_TYPE": 0, "CLASSIFICATION_TYPE": "U", "NORAD_CAT_ID": 22675, "ELEMENT_SET_NO": 999, "REV_AT_EPOCH": 69765, "BSTAR": 8.9333e-05, "MEAN_MOTION_DOT": 2.2e-06, "MEAN_MOTION_DDOT": 0}, "tle": {"line1": "1 22675U 93036A   25346.18661390  .00000220  00000+0  89333-4 0  9990", "line2": "2 22675  74.0395 316.8941 0023939  39.3433 320.9451 14.33204530697657"}}, "geometry": {"type": "Point", "coordinates": [78.81363343258899, 71.26348131513399]}}, {"type": "Feature", "properties": {"norad_id": 33757, "name": "COSMOS 2251 DEB", "group": "cosmos-2251-debris", "lat": 38.92376903154135, "lon": 130.70966361374084, "alt_km": 790.1675183543011, "timestamp": "2025-12-12T11:38:31.804984+00:00", "meta": {"OBJECT_NAME": "COSMOS 2251 DEB", "OBJECT_ID": "1993-036E", "EPOCH": "2025-12-12T01:13:53.432832", "MEAN_MOTION": 14.32580742, "ECCENTRICITY": 0.0015226, "INCLINATION": 74.0368, "RA_OF_ASC_NODE": 324.8665, "ARG_OF_PERICENTER": 338.2568, "MEAN_ANOMALY": 84.5801, "EPHEMERIS_TYPE": 0, "CLASSIFICATION_TYPE": "U", "NORAD_CAT_ID": 33757, "ELEMENT_SET_NO": 999, "REV_AT_EPOCH": 87986, "BSTAR": 7.4165e-05, "MEAN_MOTION_DOT": 1.75e-06, "MEAN_MOTION_DDOT": 0}, "tle": {"line1": "1 33757U 93036E   25346.05131288  .00000175  00000+0  74165-4 0  9993", "line2": "2 33757  74.0368 324.8665 0015226 338.2568  84.5801 14.32580742879860"}}, "geometry": {"type": "Point", "coordinates": [130.70966361374084, 38.92376903154135]}}, {"type": "Feature", "properties": {"norad_id": 33758, "name": "COSMOS 2251 DEB", "group": "cosmos-2251-debris", "lat": 62.36144586134416, "lon": -111.3319827985574, "alt_km": 724.1128700987629, "timestamp": "2025-12-12T11:38:31.804999+00:00", "meta": {"OBJECT_NAME": "COSMOS 2251 DEB", "OBJECT_ID": "1993-036F", "EPOCH": "2025-12-12T01:41:30.284160", "MEAN_MOTION": 14.51588537, "ECCENTRICITY": 0.0017393, "INCLINATION": 74.0278, "RA_OF_ASC_NODE": 216.2905, "ARG_OF_PERICENTER": 283.2166, "MEAN_ANOMALY": 138.1497, "EPHEMERIS_TYPE": 0, "CLASSIFICATION_TYPE": "U", "NORAD_CAT_ID": 33758, "ELEMENT_SET_NO": 999, "REV_AT_EPOCH": 88295, "BSTAR": 0.0012684, "MEAN_MOTION_DOT": 5.065e-05, "MEAN_MOTION_DDOT": 0}, "tle": {"line1": "1 33758U 93036F   25346.07048940  .00005065  00000+0  12684-2 0  9997", "line2": "2 33758  74.0278 216.2905 0017393 283.2166 138.1497 14.51588537882954"}}, "geometry": {"type": "Point", "coordinates": [-111.3319827985574, 62.36144586134416]}}, {"type": "Feature", "properties": {"norad_id": 33760, "name": "COSMOS 2251 DEB", "group": "cosmos-2251-debris", "lat": 22.44447900348943, "lon": -71.28375120659298, "alt_km": 757.9809186529747, "timestamp": "2025-12-12T11:38:31.805011+00:00", "meta": {"OBJECT_NAME": "COSMOS 2251 DEB", "OBJECT_ID": "1993-036H", "EPOCH": "2025-12-11T22:27:38.145888", "MEAN_MOTION": 14.35671858, "ECCENTRICITY": 0.0019826, "INCLINATION": 74.0321, "RA_OF_ASC_NODE": 282.9313, "ARG_OF_PERICENTER": 21.4615, "MEAN_ANOMALY": 44.505, "EPHEMERIS_TYPE": 0, "CLASSIFICATION_TYPE": "U", "NORAD_CAT_ID": 33760, "ELEMENT_SET_NO": 999, "REV_AT_EPOCH": 88113, "BSTAR": 0.00017955, "MEAN_MOTION_DOT": 4.93e-06, "MEAN_MOTION_DDOT": 0}, "tle": {"line1": "1 33760U 93036H   25345.93585817  .00000493  00000+0  17955-3 0  9990", "line2": "2 33760  74.0321 282.9313 0019826  21.4615  44.5050 14.35671858881138"}}, "geometry": {"type": "Point", "coordinates": [-71.28375120659298, 22.44447900348943]}}, {"type": "Feature", "properties": {"norad_id": 33761, "name": "COSMOS 2251 DEB", "group": "cosmos-2251-debris", "lat": -51.25903745296581, "lon": -128.26612417330065, "alt_km": 742.0443805265995, "timestamp": "2025-12-12T11:38:31.805023+00:00", "meta": {"OBJECT_NAME": "COSMOS 2251 DEB", "OBJECT_ID": "1993-036J", "EPOCH": "2025-12-11T21:14:57.625152", "MEAN_MOTION": 14.4254149, "ECCENTRICITY": 0.002305, "INCLINATION": 74.0364, "RA_OF_ASC_NODE": 253.7479, "ARG_OF_PERICENTER": 334.192, "MEAN_ANOMALY": 98.6964, "EPHEMERIS_TYPE": 0, "CLASSIFICATION_TYPE": "U", "NORAD_CAT_ID": 33761, "ELEMENT_SET_NO": 999, "REV_AT_EPOCH": 88222, "BSTAR": 0.00076228, "MEAN_MOTION_DOT": 2.511e-05, "MEAN_MOTION_DDOT": 0}, "tle": {"line1": "1 33761U 93036J   25345.88538918  .00002511  00000+0  76228-3 0  9996", "line2": "2 33761  74.0364 253.7479 0023050 334.1920  98.6964 14.42541490882223"}}, "geometry": {"type": "Point", "coordinates": [-128.26612417330065, -51.25903745296581]}}, {"type": "Feature", "properties": {"norad_id": 33762, "name": "COSMOS 2251 DEB", "group": "cosmos-2251-debris", "lat": -35.30197871018991, "lon": -61.1975506637937, "alt_km": 778.3643165621661, "timestamp": "2025-12-12T11:38:31.805034+00:00", "meta": {"OBJECT_NAME": "COSMOS 2251 DEB", "OBJECT_ID": "1993-036K", "EPOCH": "2025-12-12T00:22:52.482144", "MEAN_MOTION": 14.33663421, "ECCENTRICITY": 0.0014968, "INCLINATION": 74.0416, "RA_OF_ASC_NODE": 311.3499, "ARG_OF_PERICENTER": 13.0182, "MEAN_ANOMALY": 49.5773, "EPHEMERIS_TYPE": 0, "CLASSIFICATION_TYPE": "U", "NORAD_CAT_ID": 33762, "ELEMENT_SET_NO": 999, "REV_AT_EPOCH": 88037, "BSTAR": 8.8726e-05, "MEAN_MOTION_DOT": 2.2e-06, "MEAN_MOTION_DDOT": 0}, "tle": {"line1": "1 33762U 93036K   25346.01588521  .00000220  00000+0  88726-4 0  9990", "line2": "2 33762  74.0416 311.3499 0014968  13.0182  49.5773 14.33663421880372"}}, "geometry": {"type": "Point", "coordinates": [-61.1975506637937, -35.30197871018991]}}, {"type": "Feature", "properties": {"norad_id": 33764, "name": "COSMOS 2251 DEB", "group": "cosmos-2251-debris", "lat": 72.37194648675107, "lon": 28.839873477625915, "alt_km": 766.1672806245788, "timestamp": "2025-12-12T11:38:31.805045+00:00", "meta": {"OBJECT_NAME": "COSMOS 2251 DEB", "OBJECT_ID": "1993-036M", "EPOCH": "2025-12-11T23:53:06.008352", "MEAN_MOTION": 14.39508175, "ECCENTRICITY": 0.002399, "INCLINATION": 74.0337, "RA_OF_ASC_NODE": 274.0318, "ARG_OF_PERICENTER": 239.9147, "MEAN_ANOMALY": 200.1355, "EPHEMERIS_TYPE": 0, "CLASSIFICATION_TYPE": "U", "NORAD_CAT_ID": 33764, "ELEMENT_SET_NO": 999, "REV_AT_EPOCH": 88146, "BSTAR": 0.00054131, "MEAN_MOTION_DOT": 1.667e-05, "MEAN_MOTION_DDOT": 0}, "tle": {"line1": "1 33764U 93036M   25345.99520843  .00001667  00000+0  54131-3 0  9999", "line2": "2 33764  74.0337 274.0318 0023990 239.9147 200.1355 14.39508175881468"}}, "geometry": {"type": "Point", "coordinates": [28.839873477625915, 72.37194648675107]}}, {"type": "Feature", "properties": {"norad_id": 33765, "name": "COSMOS 2251 DEB", "group": "cosmos-2251-debris", "lat": -39.592928648591894, "lon": 7.354388689702261, "alt_km": 509.95443610606526, "timestamp": "2025-12-12T11:38:31.805056+00:00", "meta": {"OBJECT_NAME": "COSMOS 2251 DEB", "OBJECT_ID": "1993-036N", "EPOCH": "2025-12-12T00:13:55.653888", "MEAN_MOTION": 15.09921754, "ECCENTRICITY": 0.0065568, "INCLINATION": 74.0089, "RA_OF_ASC_NODE": 174.6166, "ARG_OF_PERICENTER": 266.9211, "MEAN_ANOMALY": 251.8709, "EPHEMERIS_TYPE": 0, "CLASSIFICATION_TYPE": "U", "NORAD_CAT_ID": 33765, "ELEMENT_SET_NO": 999, "REV_AT_EPOCH": 89607, "BSTAR": 0.0025079, "MEAN_MOTION_DOT": 0.00043, "MEAN_MOTION_DDOT": 0}, "tle": {"line1": "1 33765U 93036N   25346.00967192  .00043000  00000+0  25079-2 0  9990", "line2": "2 33765  74.0089 174.6166 0065568 266.9211 251.8709 15.09921754896077"}}, "geometry": {"type": "Point", "coordinates": [7.354388689702261, -39.592928648591894]}}, {"type": "Feature", "properties": {"norad_id": 33766, "name": "COSMOS 2251 DEB", "group": "cosmos-2251-debris", "lat": 34.844790661681635, "lon": -55.938291522414886, "alt_km": 816.8449597952786, "timestamp": "2025-12-12T11:38:31.805067+00:00", "meta": {"OBJECT_NAME": "COSMOS 2251 DEB", "OBJECT_ID": "1993-036P", "EPOCH": "2025-12-12T02:36:33.781248", "MEAN_MOTION": 14.34931438, "ECCENTRICITY": 0.0064133, "INCLINATION": 74.1856, "RA_OF_ASC_NODE": 136.1249, "ARG_OF_PERICENTER": 339.6713, "MEAN_ANOMALY": 20.1887, "EPHEMERIS_TYPE": 0, "CLASSIFICATION_TYPE": "U", "NORAD_CAT_ID": 33766, "ELEMENT_SET_NO": 999, "REV_AT_EPOCH": 87736, "BSTAR": 0.00083258, "MEAN_MOTION_DOT": 2.399e-05, "MEAN_MOTION_DDOT": 0}, "tle": {"line1": "1 33766U 93036P   25346.10872432  .00002399  00000+0  83258-3 0  9994", "line2": "2 33766  74.1856 136.1249 0064133 339.6713  20.1887 14.34931438877360"}}, "geometry": {"type": "Point", "coordinates": [-55.938291522414886, 34.844790661681635]}}, {"type": "Feature", "properties": {"norad_id": 33768, "name": "COSMOS 2251 DEB", "group": "cosmos-2251-debris", "lat": 33.924298016893076, "lon": 29.202917660872696, "alt_km": 1193.29511019035, "timestamp": "2025-12-12T11:38:31.805078+00:00", "meta": {"OBJECT_NAME": "COSMOS 2251 DEB", "OBJECT_ID": "1993-036R", "EPOCH": "2025-12-12T02:41:57.418368", "MEAN_MOTION": 13.58453918, "ECCENTRICITY": 0.0366297, "INCLINATION": 74.0682, "RA_OF_ASC_NODE": 220.8801, "ARG_OF_PERICENTER": 18.757, "MEAN_ANOMALY": 100.6517, "EPHEMERIS_TYPE": 0, "CLASSIFICATION_TYPE": "U", "NORAD_CAT_ID": 33768, "ELEMENT_SET_NO": 999, "REV_AT_EPOCH": 83287, "BSTAR": 0.00047721, "MEAN_MOTION_DOT": 5.18e-06, "MEAN_MOTION_DDOT": 0}, "tle": {"line1": "1 33768U 93036R   25346.11247012  .00000518  00000+0  47721-3 0  9993", "line2": "2 33768  74.0682 220.8801 0366297  18.7570 100.6517 13.58453918832873"}}, "geometry": {"type": "Point", "coordinates": [29.202917660872696, 33.924298016893076]}}]}